{
  "norad_id": 59335,
  "name": "STARLINK-31588",
  "history": [
    {
      "epoch": "2026-03-28T09:27:58.661280Z",
      "apogee_km": 483.5250964049392,
      "perigee_km": 482.5096455580342,
      "latitude_deg": -3.3049939450510923e-06,
      "longitude_deg": 113.28737183337967,
      "height_km": 482.8784489609884,
      "semi_major_axis_km": 6861.154370981487,
      "eccentricity": 7.4e-05,
      "inclination_deg": 43.0026,
      "raan_deg": 81.0973,
      "arg_perigee_deg": 260.3986,
      "mean_anomaly_deg": 99.6782,
      "mean_motion_rev_day": 15.27590595
    }
  ]
}