{"fetched_at":"2026-03-29T02:12:04Z","count":15717,"tles":[{"name":"STARLINK-31588","line1":"1 59335U 24057R   26087.39442895 -.00002732  00000+0 -89782-4 0  9993","line2":"2 59335  43.0026  81.0973 0000740 260.3986  99.6782 15.27590595112705","category":"Starlink"}]}